{
  "type": "FeatureCollection",
  "features": [
    {
      "type": "Feature",
      "properties": {
        "norad_id": 30208,
        "name": "FENGYUN 1C DEB",
        "group": "fengyun-1c-debris",
        "lat": -18.838567341495295,
        "lon": -2.1235344838744195,
        "alt_km": 819.6165922982318,
        "timestamp": "2025-12-20T03:42:47.667812+00:00",
        "meta_object_name": "FENGYUN 1C DEB",
        "meta_object_id": "1999-025VR",
        "meta_epoch": "2025-12-19T18:31:05.611008",
        "meta_mean_motion": 14.23541177,
        "meta_eccentricity": 0.0033003,
        "meta_inclination": 98.5616,
        "meta_ra_of_asc_node": 354.5575,
        "meta_arg_of_pericenter": 249.0942,
        "meta_mean_anomaly": 289.2758,
        "meta_ephemeris_type": 0,
        "meta_classification_type": "U",
        "meta_norad_cat_id": 30208,
        "meta_element_set_no": 999,
        "meta_rev_at_epoch": 97937,
        "meta_bstar": 0.00035553,
        "meta_mean_motion_dot": 7.71e-06,
        "meta_mean_motion_ddot": 0,
        "tle_line1": "1 30208U 99025VR  25353.77159272  .00000771  00000+0  35553-3 0  9994",
        "tle_line2": "2 30208  98.5616 354.5575 0033003 249.0942 289.2758 14.23541177979374"
      },
      "geometry": {
        "type": "Point",
        "coordinates": [
          -2.1235344838744195,
          -18.838567341495295
        ]
      }
    },
    {
      "type": "Feature",
      "properties": {
        "norad_id": 30209,
        "name": "FENGYUN 1C DEB",
        "group": "fengyun-1c-debris",
        "lat": 39.394153636195654,
        "lon": -16.4508289600262,
        "alt_km": 874.3975591180142,
        "timestamp": "2025-12-20T03:42:47.667822+00:00",
        "meta_object_name": "FENGYUN 1C DEB",
        "meta_object_id": "1999-025VS",
        "meta_epoch": "2025-12-18T22:46:06.954240",
        "meta_mean_motion": 14.12911152,
        "meta_eccentricity": 0.00388365,
        "meta_inclination": 98.714,
        "meta_ra_of_asc_node": 349.6113,
        "meta_arg_of_pericenter": 220.7931,
        "meta_mean_anomaly": 168.2571,
        "meta_ephemeris_type": 0,
        "meta_classification_type": "U",
        "meta_norad_cat_id": 30209,
        "meta_element_set_no": 999,
        "meta_rev_at_epoch": 97294,
        "meta_bstar": 0.0002970144,
        "meta_mean_motion_dot": 5.14e-06,
        "meta_mean_motion_ddot": 0,
        "tle_line1": "1 30209U 99025VS  25352.94869160  .00000514  00000+0  29701-3 0  9990",
        "tle_line2": "2 30209  98.7140 349.6113 0038836 220.7931 168.2571 14.12911152972942"
      },
      "geometry": {
        "type": "Point",
        "coordinates": [
          -16.4508289600262,
          39.394153636195654
        ]
      }
    },
    {
      "type": "Feature",
      "properties": {
        "norad_id": 30210,
        "name": "FENGYUN 1C DEB",
        "group": "fengyun-1c-debris",
        "lat": -73.41456073384283,
        "lon": 76.96039439383902,
        "alt_km": 912.7843283640432,
        "timestamp": "2025-12-20T03:42:47.667832+00:00",
        "meta_object_name": "FENGYUN 1C DEB",
        "meta_object_id": "1999-025VT",
        "meta_epoch": "2025-12-19T15:12:13.053024",
        "meta_mean_motion": 14.0828131,
        "meta_eccentricity": 0.0056861,
        "meta_inclination": 99.1896,
        "meta_ra_of_asc_node": 43.5061,
        "meta_arg_of_pericenter": 117.5052,
        "meta_mean_anomaly": 45.1427,
        "meta_ephemeris_type": 0,
        "meta_classification_type": "U",
        "meta_norad_cat_id": 30210,
        "meta_element_set_no": 999,
        "meta_rev_at_epoch": 96854,
        "meta_bstar": 0.00041036,
        "meta_mean_motion_dot": 6.66e-06,
        "meta_mean_motion_ddot": 0,
        "tle_line1": "1 30210U 99025VT  25353.63348441  .00000666  00000+0  41036-3 0  9996",
        "tle_line2": "2 30210  99.1896  43.5061 0056861 117.5052  45.1427 14.08281310968549"
      },
      "geometry": {
        "type": "Point",
        "coordinates": [
          76.96039439383902,
          -73.41456073384283
        ]
      }
    },
    {
      "type": "Feature",
      "properties": {
        "norad_id": 30212,
        "name": "FENGYUN 1C DEB",
        "group": "fengyun-1c-debris",
        "lat": -53.645227204597326,
        "lon": 26.660637802628667,
        "alt_km": 843.5178112898002,
        "timestamp": "2025-12-20T03:42:47.667843+00:00",
        "meta_object_name": "FENGYUN 1C DEB",
        "meta_object_id": "1999-025VV",
        "meta_epoch": "2025-12-19T04:14:48.994080",
        "meta_mean_motion": 13.97059424,
        "meta_eccentricity": 0.0097005,
        "meta_inclination": 99.4567,
        "meta_ra_of_asc_node": 218.7429,
        "meta_arg_of_pericenter": 219.6977,
        "meta_mean_anomaly": 139.7056,
        "meta_ephemeris_type": 0,
        "meta_classification_type": "U",
        "meta_norad_cat_id": 30212,
        "meta_element_set_no": 999,
        "meta_rev_at_epoch": 96315,
        "meta_bstar": 0.00013849,
        "meta_mean_motion_dot": 1.54e-06,
        "meta_mean_motion_ddot": 0,
        "tle_line1": "1 30212U 99025VV  25353.17695595  .00000154  00000+0  13849-3 0  9995",
        "tle_line2": "2 30212  99.4567 218.7429 0097005 219.6977 139.7056 13.97059424963154"
      },
      "geometry": {
        "type": "Point",
        "coordinates": [
          26.660637802628667,
          -53.645227204597326
        ]
      }
    },
    {
      "type": "Feature",
      "properties": {
        "norad_id": 30213,
        "name": "FENGYUN 1C DEB",
        "group": "fengyun-1c-debris",
        "lat": -26.663077102868847,
        "lon": 75.34601348915207,
        "alt_km": 876.8916717525799,
        "timestamp": "2025-12-20T03:42:47.667853+00:00",
        "meta_object_name": "FENGYUN 1C DEB",
        "meta_object_id": "1999-025VW",
        "meta_epoch": "2025-12-19T16:39:50.964768",
        "meta_mean_motion": 14.11612052,
        "meta_eccentricity": 0.0072256,
        "meta_inclination": 99.1227,
        "meta_ra_of_asc_node": 70.2502,
        "meta_arg_of_pericenter": 224.5283,
        "meta_mean_anomaly": 289.5047,
        "meta_ephemeris_type": 0,
        "meta_classification_type": "U",
        "meta_norad_cat_id": 30213,
        "meta_element_set_no": 999,
        "meta_rev_at_epoch": 96613,
        "meta_bstar": 0.0011349,
        "meta_mean_motion_dot": 2.068e-05,
        "meta_mean_motion_ddot": 0,
        "tle_line1": "1 30213U 99025VW  25353.69433987  .00002068  00000+0  11349-2 0  9996",
        "tle_line2": "2 30213  99.1227  70.2502 0072256 224.5283 289.5047 14.11612052966138"
      },
      "geometry": {
        "type": "Point",
        "coordinates": [
          75.34601348915207,
          -26.663077102868847
        ]
      }
    },
    {
      "type": "Feature",
      "properties": {
        "norad_id": 30214,
        "name": "FENGYUN 1C DEB",
        "group": "fengyun-1c-debris",
        "lat": -55.84833219977048,
        "lon": 80.41625226776551,
        "alt_km": 792.6073259644636,
        "timestamp": "2025-12-20T03:42:47.667863+00:00",
        "meta_object_name": "FENGYUN 1C DEB",
        "meta_object_id": "1999-025VX",
        "meta_epoch": "2025-12-19T04:45:02.003904",
        "meta_mean_motion": 14.3097352,
        "meta_eccentricity": 0.002043,
        "meta_inclination": 98.7246,
        "meta_ra_of_asc_node": 66.3728,
        "meta_arg_of_pericenter": 24.8249,
        "meta_mean_anomaly": 32.5689,
        "meta_ephemeris_type": 0,
        "meta_classification_type": "U",
        "meta_norad_cat_id": 30214,
        "meta_element_set_no": 999,
        "meta_rev_at_epoch": 97659,
        "meta_bstar": 0.0011932,
        "meta_mean_motion_dot": 3.101e-05,
        "meta_mean_motion_ddot": 0,
        "tle_line1": "1 30214U 99025VX  25353.19793986  .00003101  00000+0  11932-2 0  9997",
        "tle_line2": "2 30214  98.7246  66.3728 0020430  24.8249  32.5689 14.30973520976591"
      },
      "geometry": {
        "type": "Point",
        "coordinates": [
          80.41625226776551,
          -55.84833219977048
        ]
      }
    },
    {
      "type": "Feature",
      "properties": {
        "norad_id": 30217,
        "name": "FENGYUN 1C DEB",
        "group": "fengyun-1c-debris",
        "lat": -67.94253133647727,
        "lon": -0.891640310293698,
        "alt_km": 901.431185451901,
        "timestamp": "2025-12-20T03:42:47.667874+00:00",
        "meta_object_name": "FENGYUN 1C DEB",
        "meta_object_id": "1999-025WA",
        "meta_epoch": "2025-12-19T16:14:42.017280",
        "meta_mean_motion": 14.24842859,
        "meta_eccentricity": 0.014073,
        "meta_inclination": 98.4319,
        "meta_ra_of_asc_node": 337.1755,
        "meta_arg_of_pericenter": 79.6726,
        "meta_mean_anomaly": 282.0284,
        "meta_ephemeris_type": 0,
        "meta_classification_type": "U",
        "meta_norad_cat_id": 30217,
        "meta_element_set_no": 999,
        "meta_rev_at_epoch": 98172,
        "meta_bstar": 0.00019049,
        "meta_mean_motion_dot": 4.51e-06,
        "meta_mean_motion_ddot": 0,
        "tle_line1": "1 30217U 99025WA  25353.67687520  .00000451  00000+0  19049-3 0  9992",
        "tle_line2": "2 30217  98.4319 337.1755 0140730  79.6726 282.0284 14.24842859981722"
      },
      "geometry": {
        "type": "Point",
        "coordinates": [
          -0.891640310293698,
          -67.94253133647727
        ]
      }
    }
  ]
}